[{"OBJECT_NAME":"STARLINK-34197","OBJECT_ID":"2025-113Q","EPOCH":"2026-03-09T07:18:07.396992","MEAN_MOTION":15.30156015,"ECCENTRICITY":0.00016174,"INCLINATION":53.1588,"RA_OF_ASC_NODE":93.0984,"ARG_OF_PERICENTER":64.8864,"MEAN_ANOMALY":295.2305,"EPHEMERIS_TYPE":0,"CLASSIFICATION_TYPE":"U","NORAD_CAT_ID":64184,"ELEMENT_SET_NO":999,"REV_AT_EPOCH":4500,"BSTAR":1.0455838e-5,"MEAN_MOTION_DOT":-5.0e-7,"MEAN_MOTION_DDOT":0},{"OBJECT_NAME":"AIST-2 (RS43)","OBJECT_ID":"2013-015D","EPOCH":"2026-03-09T22:52:25.813056","MEAN_MOTION":15.25079544,"ECCENTRICITY":0.00239979,"INCLINATION":64.8687,"RA_OF_ASC_NODE":221.5348,"ARG_OF_PERICENTER":248.8384,"MEAN_ANOMALY":111.0181,"EPHEMERIS_TYPE":0,"CLASSIFICATION_TYPE":"U","NORAD_CAT_ID":39133,"ELEMENT_SET_NO":999,"REV_AT_EPOCH":70876,"BSTAR":0.00037899099,"MEAN_MOTION_DOT":9.402e-5,"MEAN_MOTION_DDOT":0}]
